satname,norad_id,inclination_deg,eccentricity,mean_motion_rev_per_day,perigee_km,apogee_km,l1,l2
STARLINK-1152,45096,53.0443,0.0005592,15.28481967,476.5143448747276,484.1848763000089,1 45096U 20006BE  25351.08291688  .00035602  00000+0  12733-2 0  9993,2 45096  53.0443 233.1187 0005592  60.9760 299.1799 15.28481967324915
STARLINK-1184,45098,53.0544,0.0001932,15.06807591,544.6248957786629,547.3003678764017,1 45098U 20006BG  25351.44310469  .00014448  00000+0  97608-3 0  9994,2 45098  53.0544 255.8285 0001932 113.7256 246.3936 15.06807591324626
STARLINK-1193,45100,53.0538,0.0001384,15.0639725,546.2615168981229,548.1784557119317,1 45100U 20006BJ  25351.17493774  .00001937  00000+0  14891-3 0  9991,2 45100  53.0538 257.0414 0001384  91.6135 268.5012 15.06397250324584
STARLINK-1143,45179,53.0543,7.95e-05,15.47041332,424.84573831056423,425.9274985658967,1 45179U 20012B   25351.32566376  .00077045  00000+0  14929-2 0  9994,2 45179  53.0543   7.7025 0000795 192.9409 167.1578 15.47041332323119
STARLINK-1202,45183,53.0557,0.0001081,15.06420059,546.4014571410671,547.8987042079088,1 45183U 20012F   25351.56931688  .00004713  00000+0  33490-3 0  9994,2 45183  53.0557  55.2724 0001081  79.7741 280.3370 15.06420059322460
STARLINK-1216,45185,53.0557,0.0001225,15.06416662,546.3121428359964,548.0088407214816,1 45185U 20012H   25351.56193958  .00002974  00000+0  21837-3 0  9995,2 45185  53.0557  55.3038 0001225  92.9027 267.2103 15.06416662322402
STARLINK-1225,45187,53.0568,0.0001325,15.06408134,546.2690231311853,548.1042338927418,1 45187U 20012K   25351.58037351 -.00003324  00000+0 -20429-3 0  9991,2 45187  53.0568  55.2213 0001325  93.0127 267.1014 15.06408134322454
STARLINK-1230,45189,53.0559,0.0001244,15.06402568,546.3421750178059,548.0651997808309,1 45189U 20012M   25351.45137269  .00002974  00000+0  21843-3 0  9997,2 45189  53.0559  55.8046 0001244  89.0835 271.0296 15.06402568319667
STARLINK-1234,45190,53.0511,0.0008397,15.43914316,428.84937886298667,440.2906390137987,1 45190U 20012N   25351.27641543  .00092137  00000+0  19789-2 0  9999,2 45190  53.0511   2.5631 0008397  13.2148 346.9076 15.43914316323076
STARLINK-1269,45197,53.055,0.0001223,15.06420129,546.302903555611,547.9968287230677,1 45197U 20012V   25351.59511322  .00004157  00000+0  29766-3 0  9994,2 45197  53.0550  55.1555 0001223  79.2246 280.8881 15.06420129322439
STARLINK-1154,45198,53.0557,0.0001595,15.06438619,545.9886245773296,548.1977730107446,1 45198U 20012W   25351.45320630  .00009846  00000+0  67825-3 0  9998,2 45198  53.0557  35.7933 0001595  76.5018 283.6149 15.06438619322666
STARLINK-1199,45201,53.0558,0.0001249,15.06408492,546.3205585194555,548.0505040877752,1 45201U 20012Z   25351.53061109  .00001663  00000+0  13046-3 0  9990,2 45201  53.0558  35.4462 0001249  87.6893 272.4239 15.06408492322736
STARLINK-1209,45206,53.0523,0.0008655,15.37042841,448.9454587860837,460.77337558423096,1 45206U 20012AE  25351.59413033  .00072779  00000+0  19684-2 0  9997,2 45206  53.0523   3.8022 0008655  16.4090 343.7191 15.37042841322231
STARLINK-1210,45207,53.0208,0.0003665,15.69221043,358.65638148957896,363.5962615042354,1 45207U 20012AF  25351.31864564  .00112283  00000+0  93756-3 0  9995,2 45207  53.0208 317.2930 0003665 153.7808 206.3394 15.69221043323812
STARLINK-1231,45212,53.0509,0.0002296,15.15371137,518.268271543242,521.4358281149234,1 45212U 20012AL  25351.51211042  .00022321  00000+0  11815-2 0  9998,2 45212  53.0509  31.4045 0002296 172.5632 187.5395 15.15371137322740
STARLINK-1271,45217,53.0569,0.0001383,15.06406965,546.2324385453467,548.1479840519924,1 45217U 20012AR  25351.51586815  .00000956  00000+0  83021-4 0  9996,2 45217  53.0569  35.5125 0001383  89.5423 270.5725 15.06406965322733
STARLINK-1191,45222,53.0562,0.0001279,15.06404283,546.312680789596,548.0841815928943,1 45222U 20012AW  25351.45873956  .00000820  00000+0  73913-4 0  9999,2 45222  53.0562  15.7667 0001279  86.5283 273.5852 15.06404283323004
STARLINK-1212,45223,53.057,0.0001447,15.06417501,546.15583023819,548.1600105881589,1 45223U 20012AX  25351.34455433  .00002640  00000+0  19597-3 0  9993,2 45223  53.0570  16.9367 0001447  89.0126 271.1029 15.06417501322988
STARLINK-1215,45225,53.0563,0.0001296,15.06408792,546.2870901747192,548.0821335365108,1 45225U 20012AZ  25351.36658477  .00001444  00000+0  11580-3 0  9995,2 45225  53.0563  16.1807 0001296  91.1795 268.9342 15.06408792322941
STARLINK-1221,45227,53.0688,0.0005743,15.38709732,446.00236051542015,453.8450710535708,1 45227U 20012BB  25351.57072255  .00010408  00000+0  27782-3 0  9995,2 45227  53.0688 297.7722 0005743 100.8367 259.3283 15.38709732324053
STARLINK-1222,45228,53.0579,0.0001019,15.29607082,476.2874504987258,477.6845245635841,1 45228U 20012BC  25351.66670139  .01984532  00000+0  61655-1 0  9995,2 45228  53.0579  13.5396 0001019  62.3835 254.3212 15.29607082  5753
STARLINK-1226,45229,53.0555,0.0001525,15.0642233,546.087015331399,548.1992257681668,1 45229U 20012BD  25351.29657014  .00009316  00000+0  64309-3 0  9990,2 45229  53.0555  16.4952 0001525  94.6709 265.4454 15.06422330322870
STARLINK-1227,45230,53.0551,0.0001263,15.06421967,546.2695700455024,548.0188960849755,1 45230U 20012BE  25351.35921652  .00003584  00000+0  25921-3 0  9999,2 45230  53.0551  16.2138 0001263  88.2006 271.9128 15.06421967323001
STARLINK-1246,45235,53.0556,0.0001339,15.064092,546.256061010431,548.1106618032163,1 45235U 20012BK  25351.57300194  .00000505  00000+0  52756-4 0  9997,2 45235  53.0556  55.2541 0001339  99.0534 261.0606 15.06409200322480
STARLINK-1270,45237,53.0562,0.0002268,15.14342783,521.4093640930996,524.5397082859163,1 45237U 20012BM  25351.66670139  .00064155  00000+0  34447-2 0  9994,2 45237  53.0562  14.7475 0002268  82.0630  92.1246 15.14342783  5691
STARLINK-1279,45360,53.0483,0.0005494,15.41988207,436.49601326007723,443.98804813900915,1 45360U 20019A   25351.63150141  .00097036  00000+0  22229-2 0  9990,2 45360  53.0483 131.9339 0005494 186.1760 173.9177 15.41988207317958
STARLINK-1301,45361,53.0476,0.0005897,15.45116775,427.0196048145035,435.0503422400816,1 45361U 20019B   25351.66670139  .00074002  00000+0  15320-2 0  9990,2 45361  53.0476 140.5802 0005897 181.8605 318.3004 15.45116775  5909
STARLINK-1306,45362,53.0359,0.0002232,15.90994395,298.0085473270583,300.98944403553014,1 45362U 20019C   25351.66670139  .00177070  22644-4  55905-3 0  9997,2 45362  53.0359 117.4728 0002232  10.8911 311.8144 15.90994395  5748
STARLINK-1262,45366,53.0544,0.0001416,15.06394109,546.2489811512469,548.2102449760669,1 45366U 20019G   25350.82476522  .00000816  00000+0  73693-4 0  9993,2 45366  53.0544 178.6098 0001416  92.4852 267.6300 15.06394109317247
STARLINK-1273,45367,53.0542,0.0001321,15.06394044,546.3149713246994,548.1446532365044,1 45367U 20019H   25351.51036318  .00001758  00000+0  13690-3 0  9992,2 45367  53.0542 175.5323 0001321  93.2666 266.8474 15.06394044317342
STARLINK-1276,45368,53.0531,0.0001271,15.06391008,546.3589019557758,548.1193325647846,1 45368U 20019J   25351.54720426  .00001465  00000+0  11725-3 0  9998,2 45368  53.0531 175.3709 0001271  90.9407 269.1728 15.06391008317354
STARLINK-1277,45369,53.0528,0.0001461,15.06396681,546.2099353034464,548.2335251244149,1 45369U 20019K   25351.53991023  .00000221  00000+0  33753-4 0  9996,2 45369  53.0528 176.0284 0001461  93.8445 266.2711 15.06396681317343
STARLINK-1281,45370,53.0539,0.0001353,15.06396145,546.2863717247874,548.1603742417155,1 45370U 20019L   25351.53614214  .00001062  00000+0  90217-4 0  9994,2 45370  53.0539 175.4219 0001353  92.1301 267.9843 15.06396145317351
STARLINK-1300,45374,53.0537,0.0001644,15.06399884,546.0733861002209,548.3504408229664,1 45374U 20019Q   25351.22653409  .00000418  00000+0  46989-4 0  9994,2 45374  53.0537 176.8079 0001644  95.5968 264.5209 15.06399884317308
STARLINK-1302,45375,53.0539,0.0001496,15.06399161,546.1780968246812,548.2501618825845,1 45375U 20019R   25351.50666082  .00001188  00000+0  98617-4 0  9997,2 45375  53.0539 175.5507 0001496  94.8009 265.3151 15.06399161317343
STARLINK-1304,45376,53.0542,0.000135,15.06403843,546.2648592565474,548.1347001870727,1 45376U 20019S   25351.25970549  .00001693  00000+0  13250-3 0  9996,2 45376  53.0542 176.6580 0001350  93.3638 266.7506 15.06403843317300
STARLINK-1305,45377,53.0494,0.0008627,15.3793548,446.3226395082229,458.107729167079,1 45377U 20019T   25351.64501326  .00065711  00000+0  17292-2 0  9993,2 45377  53.0494 163.2754 0008627 155.1498 204.9922 15.37935480317539
STARLINK-1319,45379,53.0506,0.0007219,15.43048955,432.1969395685219,442.0368031079606,1 45379U 20019V   25351.65044020  .00084615  00000+0  18742-2 0  9994,2 45379  53.0506 164.0759 0007219 163.3407 196.7836 15.43048955317526
STARLINK-1266,45383,53.0535,0.0001388,15.06400392,546.249118301912,548.1715947280809,1 45383U 20019Z   25351.61170370  .00000279  00000+0  37655-4 0  9993,2 45383  53.0535 155.0819 0001388  92.1102 268.0046 15.06400392317636
STARLINK-1267,45384,53.0534,0.0002171,15.15273464,518.6508538157841,521.6460893675494,1 45384U 20019AA  25351.66670139  .01643742  00000+0  79182-1 0  9994,2 45384  53.0534 155.2928 0002171  75.5957  46.6717 15.15273464  5810
STARLINK-1272,45386,53.0505,0.0006642,15.41467035,437.24902454482617,446.3086007103202,1 45386U 20019AC  25351.62354544  .00102049  00000+0  23761-2 0  9993,2 45386  53.0505 142.5699 0006642 181.4785 178.6200 15.41467035317814
STARLINK-1274,45387,53.0322,0.0001851,15.35075196,459.4312828160737,461.96301921877966,1 45387U 20019AD  25351.62971749  .00081847  00000+0  23559-2 0  9993,2 45387  53.0322 131.7242 0001851 123.2622 236.8557 15.35075196317961
STARLINK-1280,45388,53.0505,0.0008889,15.46618824,420.57687408096353,432.67438108027727,1 45388U 20019AE  25351.64507998  .00032044  00000+0  63790-3 0  9994,2 45388  53.0505 159.9548 0008889 144.8339 215.3256 15.46618824317565
